STARLINK-36661          
1 67831U 26033L   26070.70633738  .00414164  00000+0  18783-2 0  9999
2 67831  42.9979 259.0496 0001693 272.6355  87.4323 15.81999167  4941
STARLINK-36662          
1 67832U 26033M   26070.83100186  .01828840  00000+0  64925-2 0  9990
2 67832  42.9962 257.3520 0008461 300.5381  59.4656 15.85414116  4974
STARLINK-36659          
1 67833U 26033N   26069.88560167  .00548655  00000+0  24307-2 0  9995
2 67833  42.9978 264.0779 0001992 269.6927  90.3717 15.82155791  4819
STARLINK-36655          
1 67834U 26033P   26070.83335647 -.01916459  00000+0 -11657-1 0  9993
2 67834  42.9991 258.2680 0001554 280.6135  85.6386 15.79654059  5007
STARLINK-36657          
1 67835U 26033Q   26069.88396311  .00995188  00000+0  40248-2 0  9994
2 67835  42.9975 264.0647 0003179 271.1022  88.9486 15.82980376  4816
STARLINK-36650          
1 67836U 26033R   26070.83335647 -.01910987  00000+0 -14140-1 0  9995
2 67836  42.9993 258.2890 0001541 273.8395  84.0142 15.75318768  5005
STARLINK-36649          
1 67837U 26033S   26070.51409359  .00506791  00000+0  23055-2 0  9990
2 67837  42.9976 260.1863 0005269 217.1303 142.9205 15.81687853  4914
STARLINK-36654          
1 67838U 26033T   26070.83335647 -.01910995  00000+0 -12987-1 0  9993
2 67838  42.9991 258.2432 0001769 276.1047  99.7161 15.77216125  5009
STARLINK-36652          
1 67839U 26033U   26070.83335647 -.01905919  00000+0 -13975-1 0  9992
2 67839  42.9991 258.2536 0001843 276.8083  94.9746 15.75510640  5008
STARLINK-36651          
1 67840U 26033V   26070.83335647 -.01908594  00000+0 -13073-1 0  9995
2 67840  42.9991 258.2235 0001799 277.4042 106.2084 15.77037579  5007
STARLINK-36656          
1 67841U 26033W   26070.00587953  .00167638  00000+0  78297-3 0  9998
2 67841  42.9980 263.2558 0002262 260.6473  99.4143 15.82024668  4838
STARLINK-36653          
1 67842U 26033X   26070.83335647 -.01908621  00000+0 -13019-1 0  9998
2 67842  42.9991 258.2012 0001777 277.7184 114.8352 15.77130460  5004
STARLINK-36589          
1 67843U 26033Y   26070.83335647 -.01912742  00000+0 -12445-1 0  9990
2 67843  42.9989 258.1810 0001576 272.4902 128.2666 15.78181267  5003
STARLINK-36598          
1 67844U 26033Z   26070.83335647 -.01905112  00000+0 -14315-1 0  9992
2 67844  42.9990 258.2078 0001816 277.4692 112.4549 15.74957274  5001
STARLINK-36606          
1 67845U 26033AA  26069.93974076  .00194310  00000+0  90238-3 0  9994
2 67845  42.9975 263.6169 0001667 246.0158 114.0539 15.82072065  4820
STARLINK-36658          
1 67846U 26033AB  26070.83335647 -.01911269  00000+0 -14076-1 0  9998
2 67846  42.9990 258.1794 0001652 279.9216 121.2554 15.75423167  5008
