[{"OBJECT_NAME":"STARLINK-36661","OBJECT_ID":"2026-033L","EPOCH":"2026-03-11T16:57:07.549632","MEAN_MOTION":15.81999167,"ECCENTRICITY":0.0001693,"INCLINATION":42.9979,"RA_OF_ASC_NODE":259.0496,"ARG_OF_PERICENTER":272.6355,"MEAN_ANOMALY":87.4323,"EPHEMERIS_TYPE":0,"CLASSIFICATION_TYPE":"U","NORAD_CAT_ID":67831,"ELEMENT_SET_NO":999,"REV_AT_EPOCH":494,"BSTAR":0.0018783,"MEAN_MOTION_DOT":0.00414164,"MEAN_MOTION_DDOT":0},{"OBJECT_NAME":"STARLINK-36662","OBJECT_ID":"2026-033M","EPOCH":"2026-03-11T19:56:38.560704","MEAN_MOTION":15.85414116,"ECCENTRICITY":0.0008461,"INCLINATION":42.9962,"RA_OF_ASC_NODE":257.352,"ARG_OF_PERICENTER":300.5381,"MEAN_ANOMALY":59.4656,"EPHEMERIS_TYPE":0,"CLASSIFICATION_TYPE":"U","NORAD_CAT_ID":67832,"ELEMENT_SET_NO":999,"REV_AT_EPOCH":497,"BSTAR":0.0064925,"MEAN_MOTION_DOT":0.0182884,"MEAN_MOTION_DDOT":0},{"OBJECT_NAME":"STARLINK-36659","OBJECT_ID":"2026-033N","EPOCH":"2026-03-10T21:15:15.984288","MEAN_MOTION":15.82155791,"ECCENTRICITY":0.0001992,"INCLINATION":42.9978,"RA_OF_ASC_NODE":264.0779,"ARG_OF_PERICENTER":269.6927,"MEAN_ANOMALY":90.3717,"EPHEMERIS_TYPE":0,"CLASSIFICATION_TYPE":"U","NORAD_CAT_ID":67833,"ELEMENT_SET_NO":999,"REV_AT_EPOCH":481,"BSTAR":0.0024307,"MEAN_MOTION_DOT":0.00548655,"MEAN_MOTION_DDOT":0},{"OBJECT_NAME":"STARLINK-36655","OBJECT_ID":"2026-033P","EPOCH":"2026-03-11T20:00:01.999008","MEAN_MOTION":15.79654059,"ECCENTRICITY":0.0001554,"INCLINATION":42.9991,"RA_OF_ASC_NODE":258.268,"ARG_OF_PERICENTER":280.6135,"MEAN_ANOMALY":85.6386,"EPHEMERIS_TYPE":0,"CLASSIFICATION_TYPE":"U","NORAD_CAT_ID":67834,"ELEMENT_SET_NO":999,"REV_AT_EPOCH":500,"BSTAR":-0.011657,"MEAN_MOTION_DOT":-0.01916459,"MEAN_MOTION_DDOT":0},{"OBJECT_NAME":"STARLINK-36657","OBJECT_ID":"2026-033Q","EPOCH":"2026-03-10T21:12:54.412704","MEAN_MOTION":15.82980376,"ECCENTRICITY":0.0003179,"INCLINATION":42.9975,"RA_OF_ASC_NODE":264.0647,"ARG_OF_PERICENTER":271.1022,"MEAN_ANOMALY":88.9486,"EPHEMERIS_TYPE":0,"CLASSIFICATION_TYPE":"U","NORAD_CAT_ID":67835,"ELEMENT_SET_NO":999,"REV_AT_EPOCH":481,"BSTAR":0.0040248,"MEAN_MOTION_DOT":0.00995188,"MEAN_MOTION_DDOT":0},{"OBJECT_NAME":"STARLINK-36650","OBJECT_ID":"2026-033R","EPOCH":"2026-03-11T20:00:01.999008","MEAN_MOTION":15.75318768,"ECCENTRICITY":0.0001541,"INCLINATION":42.9993,"RA_OF_ASC_NODE":258.289,"ARG_OF_PERICENTER":273.8395,"MEAN_ANOMALY":84.0142,"EPHEMERIS_TYPE":0,"CLASSIFICATION_TYPE":"U","NORAD_CAT_ID":67836,"ELEMENT_SET_NO":999,"REV_AT_EPOCH":500,"BSTAR":-0.01414,"MEAN_MOTION_DOT":-0.01910987,"MEAN_MOTION_DDOT":0},{"OBJECT_NAME":"STARLINK-36649","OBJECT_ID":"2026-033S","EPOCH":"2026-03-11T12:20:17.686176","MEAN_MOTION":15.81687853,"ECCENTRICITY":0.0005269,"INCLINATION":42.9976,"RA_OF_ASC_NODE":260.1863,"ARG_OF_PERICENTER":217.1303,"MEAN_ANOMALY":142.9205,"EPHEMERIS_TYPE":0,"CLASSIFICATION_TYPE":"U","NORAD_CAT_ID":67837,"ELEMENT_SET_NO":999,"REV_AT_EPOCH":491,"BSTAR":0.0023055,"MEAN_MOTION_DOT":0.00506791,"MEAN_MOTION_DDOT":0},{"OBJECT_NAME":"STARLINK-36654","OBJECT_ID":"2026-033T","EPOCH":"2026-03-11T20:00:01.999008","MEAN_MOTION":15.77216125,"ECCENTRICITY":0.0001769,"INCLINATION":42.9991,"RA_OF_ASC_NODE":258.2432,"ARG_OF_PERICENTER":276.1047,"MEAN_ANOMALY":99.7161,"EPHEMERIS_TYPE":0,"CLASSIFICATION_TYPE":"U","NORAD_CAT_ID":67838,"ELEMENT_SET_NO":999,"REV_AT_EPOCH":500,"BSTAR":-0.012987,"MEAN_MOTION_DOT":-0.01910995,"MEAN_MOTION_DDOT":0},{"OBJECT_NAME":"STARLINK-36652","OBJECT_ID":"2026-033U","EPOCH":"2026-03-11T20:00:01.999008","MEAN_MOTION":15.7551064,"ECCENTRICITY":0.0001843,"INCLINATION":42.9991,"RA_OF_ASC_NODE":258.2536,"ARG_OF_PERICENTER":276.8083,"MEAN_ANOMALY":94.9746,"EPHEMERIS_TYPE":0,"CLASSIFICATION_TYPE":"U","NORAD_CAT_ID":67839,"ELEMENT_SET_NO":999,"REV_AT_EPOCH":500,"BSTAR":-0.013975,"MEAN_MOTION_DOT":-0.01905919,"MEAN_MOTION_DDOT":0},{"OBJECT_NAME":"STARLINK-36651","OBJECT_ID":"2026-033V","EPOCH":"2026-03-11T20:00:01.999008","MEAN_MOTION":15.77037579,"ECCENTRICITY":0.0001799,"INCLINATION":42.9991,"RA_OF_ASC_NODE":258.2235,"ARG_OF_PERICENTER":277.4042,"MEAN_ANOMALY":106.2084,"EPHEMERIS_TYPE":0,"CLASSIFICATION_TYPE":"U","NORAD_CAT_ID":67840,"ELEMENT_SET_NO":999,"REV_AT_EPOCH":500,"BSTAR":-0.013073,"MEAN_MOTION_DOT":-0.01908594,"MEAN_MOTION_DDOT":0},{"OBJECT_NAME":"STARLINK-36656","OBJECT_ID":"2026-033W","EPOCH":"2026-03-11T00:08:27.991392","MEAN_MOTION":15.82024668,"ECCENTRICITY":0.00022628,"INCLINATION":42.998,"RA_OF_ASC_NODE":263.2558,"ARG_OF_PERICENTER":260.6473,"MEAN_ANOMALY":99.4143,"EPHEMERIS_TYPE":0,"CLASSIFICATION_TYPE":"U","NORAD_CAT_ID":67841,"ELEMENT_SET_NO":999,"REV_AT_EPOCH":483,"BSTAR":0.00078297225,"MEAN_MOTION_DOT":0.00167638,"MEAN_MOTION_DDOT":0},{"OBJECT_NAME":"STARLINK-36653","OBJECT_ID":"2026-033X","EPOCH":"2026-03-11T20:00:01.999008","MEAN_MOTION":15.7713046,"ECCENTRICITY":0.0001777,"INCLINATION":42.9991,"RA_OF_ASC_NODE":258.2012,"ARG_OF_PERICENTER":277.7184,"MEAN_ANOMALY":114.8352,"EPHEMERIS_TYPE":0,"CLASSIFICATION_TYPE":"U","NORAD_CAT_ID":67842,"ELEMENT_SET_NO":999,"REV_AT_EPOCH":500,"BSTAR":-0.013019,"MEAN_MOTION_DOT":-0.01908621,"MEAN_MOTION_DDOT":0},{"OBJECT_NAME":"STARLINK-36589","OBJECT_ID":"2026-033Y","EPOCH":"2026-03-11T20:00:01.999008","MEAN_MOTION":15.78181267,"ECCENTRICITY":0.0001576,"INCLINATION":42.9989,"RA_OF_ASC_NODE":258.181,"ARG_OF_PERICENTER":272.4902,"MEAN_ANOMALY":128.2666,"EPHEMERIS_TYPE":0,"CLASSIFICATION_TYPE":"U","NORAD_CAT_ID":67843,"ELEMENT_SET_NO":999,"REV_AT_EPOCH":500,"BSTAR":-0.012445,"MEAN_MOTION_DOT":-0.01912742,"MEAN_MOTION_DDOT":0},{"OBJECT_NAME":"STARLINK-36598","OBJECT_ID":"2026-033Z","EPOCH":"2026-03-11T20:00:01.999008","MEAN_MOTION":15.74957274,"ECCENTRICITY":0.0001816,"INCLINATION":42.999,"RA_OF_ASC_NODE":258.2078,"ARG_OF_PERICENTER":277.4692,"MEAN_ANOMALY":112.4549,"EPHEMERIS_TYPE":0,"CLASSIFICATION_TYPE":"U","NORAD_CAT_ID":67844,"ELEMENT_SET_NO":999,"REV_AT_EPOCH":500,"BSTAR":-0.014315,"MEAN_MOTION_DOT":-0.01905112,"MEAN_MOTION_DDOT":0},{"OBJECT_NAME":"STARLINK-36606","OBJECT_ID":"2026-033AA","EPOCH":"2026-03-10T22:33:13.601664","MEAN_MOTION":15.82072065,"ECCENTRICITY":0.0001667,"INCLINATION":42.9975,"RA_OF_ASC_NODE":263.6169,"ARG_OF_PERICENTER":246.0158,"MEAN_ANOMALY":114.0539,"EPHEMERIS_TYPE":0,"CLASSIFICATION_TYPE":"U","NORAD_CAT_ID":67845,"ELEMENT_SET_NO":999,"REV_AT_EPOCH":482,"BSTAR":0.00090238375,"MEAN_MOTION_DOT":0.0019431,"MEAN_MOTION_DDOT":0},{"OBJECT_NAME":"STARLINK-36658","OBJECT_ID":"2026-033AB","EPOCH":"2026-03-11T20:00:01.999008","MEAN_MOTION":15.75423167,"ECCENTRICITY":0.0001652,"INCLINATION":42.999,"RA_OF_ASC_NODE":258.1794,"ARG_OF_PERICENTER":279.9216,"MEAN_ANOMALY":121.2554,"EPHEMERIS_TYPE":0,"CLASSIFICATION_TYPE":"U","NORAD_CAT_ID":67846,"ELEMENT_SET_NO":999,"REV_AT_EPOCH":500,"BSTAR":-0.014076,"MEAN_MOTION_DOT":-0.01911269,"MEAN_MOTION_DDOT":0}]
